[{"OBJECT_NAME":"STARLINK-36799","OBJECT_ID":"2026-037AC","EPOCH":"2026-03-17T06:16:51.659328","MEAN_MOTION":15.82075623,"ECCENTRICITY":0.00011919,"INCLINATION":42.9985,"RA_OF_ASC_NODE":151.8925,"ARG_OF_PERICENTER":222.2904,"MEAN_ANOMALY":137.7876,"EPHEMERIS_TYPE":0,"CLASSIFICATION_TYPE":"U","NORAD_CAT_ID":67958,"ELEMENT_SET_NO":999,"REV_AT_EPOCH":445,"BSTAR":0.0015611848,"MEAN_MOTION_DOT":0.00342496,"MEAN_MOTION_DDOT":0},{"OBJECT_NAME":"STARLINK-36834","OBJECT_ID":"2026-037AD","EPOCH":"2026-03-15T22:25:30.351648","MEAN_MOTION":15.82401295,"ECCENTRICITY":0.00023475,"INCLINATION":42.9988,"RA_OF_ASC_NODE":160.0045,"ARG_OF_PERICENTER":235.3783,"MEAN_ANOMALY":124.6868,"EPHEMERIS_TYPE":0,"CLASSIFICATION_TYPE":"U","NORAD_CAT_ID":67959,"ELEMENT_SET_NO":999,"REV_AT_EPOCH":424,"BSTAR":0.0025520815,"MEAN_MOTION_DOT":0.00585215,"MEAN_MOTION_DDOT":0},{"OBJECT_NAME":"STARLINK-36841","OBJECT_ID":"2026-037AE","EPOCH":"2026-03-16T12:04:37.020864","MEAN_MOTION":15.82830893,"ECCENTRICITY":0.00018947,"INCLINATION":42.9981,"RA_OF_ASC_NODE":156.5268,"ARG_OF_PERICENTER":354.5035,"MEAN_ANOMALY":5.5816,"EPHEMERIS_TYPE":0,"CLASSIFICATION_TYPE":"U","NORAD_CAT_ID":67960,"ELEMENT_SET_NO":999,"REV_AT_EPOCH":433,"BSTAR":0.0027816077,"MEAN_MOTION_DOT":0.00656337,"MEAN_MOTION_DDOT":0},{"OBJECT_NAME":"STARLINK-36912","OBJECT_ID":"2026-038A","EPOCH":"2026-03-17T07:02:31.387776","MEAN_MOTION":15.75053271,"ECCENTRICITY":0.00020576,"INCLINATION":97.2846,"RA_OF_ASC_NODE":86.9715,"ARG_OF_PERICENTER":109.7148,"MEAN_ANOMALY":250.434,"EPHEMERIS_TYPE":0,"CLASSIFICATION_TYPE":"U","NORAD_CAT_ID":67961,"ELEMENT_SET_NO":999,"REV_AT_EPOCH":438,"BSTAR":-0.0010995663,"MEAN_MOTION_DOT":-0.00160171,"MEAN_MOTION_DDOT":0},{"OBJECT_NAME":"STARLINK-36881","OBJECT_ID":"2026-038B","EPOCH":"2026-03-17T05:29:29.795712","MEAN_MOTION":15.75240402,"ECCENTRICITY":8.652e-5,"INCLINATION":97.2847,"RA_OF_ASC_NODE":86.9065,"ARG_OF_PERICENTER":101.2344,"MEAN_ANOMALY":258.9018,"EPHEMERIS_TYPE":0,"CLASSIFICATION_TYPE":"U","NORAD_CAT_ID":67962,"ELEMENT_SET_NO":999,"REV_AT_EPOCH":437,"BSTAR":0.00108816,"MEAN_MOTION_DOT":0.00165724,"MEAN_MOTION_DDOT":0},{"OBJECT_NAME":"STARLINK-36357","OBJECT_ID":"2026-038C","EPOCH":"2026-03-17T06:00:02.000160","MEAN_MOTION":15.69976617,"ECCENTRICITY":0.00018198,"INCLINATION":97.2847,"RA_OF_ASC_NODE":86.9309,"ARG_OF_PERICENTER":75.7441,"MEAN_ANOMALY":46.837,"EPHEMERIS_TYPE":0,"CLASSIFICATION_TYPE":"U","NORAD_CAT_ID":67963,"ELEMENT_SET_NO":999,"REV_AT_EPOCH":441,"BSTAR":-0.02257356,"MEAN_MOTION_DOT":-0.02331151,"MEAN_MOTION_DDOT":0},{"OBJECT_NAME":"STARLINK-36349","OBJECT_ID":"2026-038D","EPOCH":"2026-03-17T06:00:02.000160","MEAN_MOTION":15.70019359,"ECCENTRICITY":0.00017862,"INCLINATION":97.2845,"RA_OF_ASC_NODE":86.9275,"ARG_OF_PERICENTER":71.3232,"MEAN_ANOMALY":43.425,"EPHEMERIS_TYPE":0,"CLASSIFICATION_TYPE":"U","NORAD_CAT_ID":67964,"ELEMENT_SET_NO":999,"REV_AT_EPOCH":441,"BSTAR":-0.022489599,"MEAN_MOTION_DOT":-0.02327247,"MEAN_MOTION_DDOT":0},{"OBJECT_NAME":"STARLINK-36806","OBJECT_ID":"2026-038E","EPOCH":"2026-03-17T06:56:24.229248","MEAN_MOTION":15.75207519,"ECCENTRICITY":0.0001061,"INCLINATION":97.2853,"RA_OF_ASC_NODE":86.9762,"ARG_OF_PERICENTER":98.2518,"MEAN_ANOMALY":261.8868,"EPHEMERIS_TYPE":0,"CLASSIFICATION_TYPE":"U","NORAD_CAT_ID":67965,"ELEMENT_SET_NO":999,"REV_AT_EPOCH":438,"BSTAR":0.00043929712,"MEAN_MOTION_DOT":0.00065951,"MEAN_MOTION_DDOT":0},{"OBJECT_NAME":"STARLINK-36820","OBJECT_ID":"2026-038F","EPOCH":"2026-03-17T05:23:24.125856","MEAN_MOTION":15.75220032,"ECCENTRICITY":0.00012522,"INCLINATION":97.2854,"RA_OF_ASC_NODE":86.9114,"ARG_OF_PERICENTER":100.8433,"MEAN_ANOMALY":259.2973,"EPHEMERIS_TYPE":0,"CLASSIFICATION_TYPE":"U","NORAD_CAT_ID":67966,"ELEMENT_SET_NO":999,"REV_AT_EPOCH":437,"BSTAR":0.00074064906,"MEAN_MOTION_DOT":0.00111946,"MEAN_MOTION_DDOT":0},{"OBJECT_NAME":"STARLINK-36819","OBJECT_ID":"2026-038G","EPOCH":"2026-03-17T06:00:02.000160","MEAN_MOTION":15.55802808,"ECCENTRICITY":0.00012573,"INCLINATION":97.2842,"RA_OF_ASC_NODE":86.8911,"ARG_OF_PERICENTER":84.77,"MEAN_ANOMALY":292.3729,"EPHEMERIS_TYPE":0,"CLASSIFICATION_TYPE":"U","NORAD_CAT_ID":67967,"ELEMENT_SET_NO":999,"REV_AT_EPOCH":441,"BSTAR":-0.03748732,"MEAN_MOTION_DOT":-0.02277409,"MEAN_MOTION_DDOT":0},{"OBJECT_NAME":"STARLINK-36812","OBJECT_ID":"2026-038H","EPOCH":"2026-03-17T05:20:21.300000","MEAN_MOTION":15.75207745,"ECCENTRICITY":0.00014457,"INCLINATION":97.2859,"RA_OF_ASC_NODE":86.9126,"ARG_OF_PERICENTER":72.0601,"MEAN_ANOMALY":288.0821,"EPHEMERIS_TYPE":0,"CLASSIFICATION_TYPE":"U","NORAD_CAT_ID":67968,"ELEMENT_SET_NO":999,"REV_AT_EPOCH":437,"BSTAR":0.00070370227,"MEAN_MOTION_DOT":0.00106228,"MEAN_MOTION_DDOT":0},{"OBJECT_NAME":"STARLINK-36709","OBJECT_ID":"2026-038J","EPOCH":"2026-03-17T05:16:47.722656","MEAN_MOTION":15.75223083,"ECCENTRICITY":0.00010658,"INCLINATION":97.286,"RA_OF_ASC_NODE":86.9161,"ARG_OF_PERICENTER":32.8675,"MEAN_ANOMALY":327.2656,"EPHEMERIS_TYPE":0,"CLASSIFICATION_TYPE":"U","NORAD_CAT_ID":67969,"ELEMENT_SET_NO":999,"REV_AT_EPOCH":437,"BSTAR":0.00091124183,"MEAN_MOTION_DOT":0.00138205,"MEAN_MOTION_DDOT":0},{"OBJECT_NAME":"STARLINK-36319","OBJECT_ID":"2026-038K","EPOCH":"2026-03-17T06:00:02.000160","MEAN_MOTION":15.71364923,"ECCENTRICITY":0.00018787,"INCLINATION":97.2853,"RA_OF_ASC_NODE":86.9446,"ARG_OF_PERICENTER":85.4371,"MEAN_ANOMALY":73.5868,"EPHEMERIS_TYPE":0,"CLASSIFICATION_TYPE":"U","NORAD_CAT_ID":67970,"ELEMENT_SET_NO":999,"REV_AT_EPOCH":438,"BSTAR":-0.021445205,"MEAN_MOTION_DOT":-0.02345636,"MEAN_MOTION_DDOT":0},{"OBJECT_NAME":"STARLINK-36710","OBJECT_ID":"2026-038L","EPOCH":"2026-03-17T05:14:15.260352","MEAN_MOTION":15.75229229,"ECCENTRICITY":0.00011836,"INCLINATION":97.2861,"RA_OF_ASC_NODE":86.9189,"ARG_OF_PERICENTER":81.8035,"MEAN_ANOMALY":278.3364,"EPHEMERIS_TYPE":0,"CLASSIFICATION_TYPE":"U","NORAD_CAT_ID":67971,"ELEMENT_SET_NO":999,"REV_AT_EPOCH":437,"BSTAR":0.00093240411,"MEAN_MOTION_DOT":0.00141511,"MEAN_MOTION_DDOT":0},{"OBJECT_NAME":"STARLINK-36894","OBJECT_ID":"2026-038M","EPOCH":"2026-03-17T06:44:12.437664","MEAN_MOTION":15.75228798,"ECCENTRICITY":0.00014956,"INCLINATION":97.2867,"RA_OF_ASC_NODE":86.9851,"ARG_OF_PERICENTER":75.1368,"MEAN_ANOMALY":285.0063,"EPHEMERIS_TYPE":0,"CLASSIFICATION_TYPE":"U","NORAD_CAT_ID":67972,"ELEMENT_SET_NO":999,"REV_AT_EPOCH":438,"BSTAR":0.00075864495,"MEAN_MOTION_DOT":0.00114752,"MEAN_MOTION_DDOT":0},{"OBJECT_NAME":"STARLINK-36900","OBJECT_ID":"2026-038N","EPOCH":"2026-03-17T06:00:02.000160","MEAN_MOTION":15.60690045,"ECCENTRICITY":0.00017553,"INCLINATION":97.2841,"RA_OF_ASC_NODE":86.9368,"ARG_OF_PERICENTER":74.2,"MEAN_ANOMALY":49.5356,"EPHEMERIS_TYPE":0,"CLASSIFICATION_TYPE":"U","NORAD_CAT_ID":67973,"ELEMENT_SET_NO":999,"REV_AT_EPOCH":441,"BSTAR":-0.031477001,"MEAN_MOTION_DOT":-0.02298428,"MEAN_MOTION_DDOT":0},{"OBJECT_NAME":"STARLINK-36901","OBJECT_ID":"2026-038P","EPOCH":"2026-03-17T06:42:40.995360","MEAN_MOTION":15.75241234,"ECCENTRICITY":0.00015705,"INCLINATION":97.2867,"RA_OF_ASC_NODE":86.9862,"ARG_OF_PERICENTER":94.8864,"MEAN_ANOMALY":265.258,"EPHEMERIS_TYPE":0,"CLASSIFICATION_TYPE":"U","NORAD_CAT_ID":67974,"ELEMENT_SET_NO":999,"REV_AT_EPOCH":438,"BSTAR":0.00094211312,"MEAN_MOTION_DOT":0.00143089,"MEAN_MOTION_DDOT":0},{"OBJECT_NAME":"STARLINK-36883","OBJECT_ID":"2026-038Q","EPOCH":"2026-03-17T06:33:37.449504","MEAN_MOTION":15.74653734,"ECCENTRICITY":0.00010011,"INCLINATION":97.2871,"RA_OF_ASC_NODE":86.9928,"ARG_OF_PERICENTER":77.1346,"MEAN_ANOMALY":283.003,"EPHEMERIS_TYPE":0,"CLASSIFICATION_TYPE":"U","NORAD_CAT_ID":67975,"ELEMENT_SET_NO":999,"REV_AT_EPOCH":438,"BSTAR":-0.0044520545,"MEAN_MOTION_DOT":-0.00604925,"MEAN_MOTION_DDOT":0},{"OBJECT_NAME":"STARLINK-36880","OBJECT_ID":"2026-038R","EPOCH":"2026-03-17T06:00:02.000160","MEAN_MOTION":15.56990208,"ECCENTRICITY":0.00015417,"INCLINATION":97.2843,"RA_OF_ASC_NODE":86.9207,"ARG_OF_PERICENTER":77.6324,"MEAN_ANOMALY":11.179,"EPHEMERIS_TYPE":0,"CLASSIFICATION_TYPE":"U","NORAD_CAT_ID":67976,"ELEMENT_SET_NO":999,"REV_AT_EPOCH":441,"BSTAR":-0.036084242,"MEAN_MOTION_DOT":-0.02289988,"MEAN_MOTION_DDOT":0},{"OBJECT_NAME":"STARLINK-36904","OBJECT_ID":"2026-038S","EPOCH":"2026-03-17T06:35:41.153568","MEAN_MOTION":15.74526506,"ECCENTRICITY":0.00014251,"INCLINATION":97.2871,"RA_OF_ASC_NODE":86.991,"ARG_OF_PERICENTER":123.1646,"MEAN_ANOMALY":236.9756,"EPHEMERIS_TYPE":0,"CLASSIFICATION_TYPE":"U","NORAD_CAT_ID":67977,"ELEMENT_SET_NO":999,"REV_AT_EPOCH":438,"BSTAR":-0.0052191518,"MEAN_MOTION_DOT":-0.00697741,"MEAN_MOTION_DDOT":0},{"OBJECT_NAME":"STARLINK-36364","OBJECT_ID":"2026-038T","EPOCH":"2026-03-17T06:29:28.374720","MEAN_MOTION":15.75212513,"ECCENTRICITY":0.00016167,"INCLINATION":97.2877,"RA_OF_ASC_NODE":86.9966,"ARG_OF_PERICENTER":115.6317,"MEAN_ANOMALY":244.5115,"EPHEMERIS_TYPE":0,"CLASSIFICATION_TYPE":"U","NORAD_CAT_ID":67978,"ELEMENT_SET_NO":999,"REV_AT_EPOCH":438,"BSTAR":0.0006380686,"MEAN_MOTION_DOT":0.00096216,"MEAN_MOTION_DDOT":0},{"OBJECT_NAME":"STARLINK-36359","OBJECT_ID":"2026-038U","EPOCH":"2026-03-17T06:37:36.348096","MEAN_MOTION":15.75194925,"ECCENTRICITY":0.00015192,"INCLINATION":97.2872,"RA_OF_ASC_NODE":86.9895,"ARG_OF_PERICENTER":96.2473,"MEAN_ANOMALY":263.8965,"EPHEMERIS_TYPE":0,"CLASSIFICATION_TYPE":"U","NORAD_CAT_ID":67979,"ELEMENT_SET_NO":999,"REV_AT_EPOCH":438,"BSTAR":0.00033887467,"MEAN_MOTION_DOT":0.00050728,"MEAN_MOTION_DDOT":0},{"OBJECT_NAME":"STARLINK-36882","OBJECT_ID":"2026-038V","EPOCH":"2026-03-17T05:00:13.394304","MEAN_MOTION":15.74258379,"ECCENTRICITY":4.03e-5,"INCLINATION":97.2875,"RA_OF_ASC_NODE":86.9275,"ARG_OF_PERICENTER":130.5105,"MEAN_ANOMALY":229.6195,"EPHEMERIS_TYPE":0,"CLASSIFICATION_TYPE":"U","NORAD_CAT_ID":67980,"ELEMENT_SET_NO":999,"REV_AT_EPOCH":437,"BSTAR":-0.0055107697,"MEAN_MOTION_DOT":-0.00725618,"MEAN_MOTION_DDOT":0}]
